{
  "type": "FeatureCollection",
  "crs": {
    "type": "name",
    "properties": {
      "name": "urn:ogc:def:crs:OGC:1.3:CRS84"
    }
  },
  "features": [
    {
      "type": "Feature",
      "properties": {"name": "Costantinopoli", "owner": "Impero Bizantino"},
      "geometry": {
        "type": "Polygon",
        "coordinates": [[[28.9, 40.9], [29.2, 40.9], [29.2, 41.2], [28.9, 41.2], [28.9, 40.9]]]
      }
    },
    {
      "type": "Feature",
      "properties": {"name": "Nicea", "owner": "Impero Bizantino"},
      "geometry": {
        "type": "Polygon",
        "coordinates": [[[29.0, 40.5], [29.3, 40.5], [29.3, 40.8], [29.0, 40.8], [29.0, 40.5]]]
      }
    },
    {
      "type": "Feature",
      "properties": {"name": "Adrianopoli", "owner": "Impero Bizantino"},
      "geometry": {
        "type": "Polygon",
        "coordinates": [[[26.3, 41.5], [26.6, 41.5], [26.6, 41.8], [26.3, 41.8], [26.3, 41.5]]]
      }
    },
    {
      "type": "Feature",
      "properties": {"name": "Sofia", "owner": "Impero Bizantino"},
      "geometry": {
        "type": "Polygon",
        "coordinates": [[[23.2, 42.5], [23.5, 42.5], [23.5, 42.8], [23.2, 42.8], [23.2, 42.5]]]
      }
    },
    {
      "type": "Feature",
      "properties": {"name": "Il Cairo", "owner": "Califfato Fatimide"},
      "geometry": {
        "type": "Polygon",
        "coordinates": [[[31.0, 29.9], [31.3, 29.9], [31.3, 30.2], [31.0, 30.2], [31.0, 29.9]]]
      }
    },
    {
      "type": "Feature",
      "properties": {"name": "Gerusalemme", "owner": "Califfato Fatimide"},
      "geometry": {
        "type": "Polygon",
        "coordinates": [[[35.1, 31.6], [35.4, 31.6], [35.4, 31.9], [35.1, 31.9], [35.1, 31.6]]]
      }
    },
    {
      "type": "Feature",
      "properties": {"name": "Parigi", "owner": "Regno di Francia"},
      "geometry": {
        "type": "Polygon",
        "coordinates": [[[2.2, 48.7], [2.5, 48.7], [2.5, 49.0], [2.2, 49.0], [2.2, 48.7]]]
      }
    },
    {
      "type": "Feature",
      "properties": {"name": "Vienna", "owner": "Sacro Romano Impero"},
      "geometry": {
        "type": "Polygon",
        "coordinates": [[[16.2, 48.1], [16.5, 48.1], [16.5, 48.4], [16.2, 48.4], [16.2, 48.1]]]
      }
    },
    {
      "type": "Feature",
      "properties": {"name": "Kaifeng", "owner": "Dinastia Song"},
      "geometry": {
        "type": "Polygon",
        "coordinates": [[[114.2, 34.6], [114.5, 34.6], [114.5, 34.9], [114.2, 34.9], [114.2, 34.6]]]
      }
    },
    {
      "type": "Feature",
      "properties": {"name": "Kattegat", "owner": "Vichinghi"},
      "geometry": {
        "type": "Polygon",
        "coordinates": [[[12.0, 57.5], [12.5, 57.5], [12.5, 58.0], [12.0, 58.0], [12.0, 57.5]]]
      }
    }
  ]
}
